NORAD_CAT_ID,OBJECT_NAME,OBJECT_TYPE,EPOCH,MEAN_MOTION,ECCENTRICITY,INCLINATION,RA_OF_ASC_NODE,ARG_OF_PERICENTER,MEAN_ANOMALY,BSTAR,MEAN_MOTION_DOT,MEAN_MOTION_DDOT,TLE_LINE0,TLE_LINE1,TLE_LINE2,SEMIMAJOR_AXIS,PERIOD,APOGEE,PERIGEE,DECAYED
53784.0,STARLINK-4687,PAYLOAD,2023-03-20 07:59:25,15.08840586,0.0001436,53.2143,106.514,88.4244,271.6913,3.7348e-05,3.06e-06,0.0,0 STARLINK-4687,1 53784U 22111M   23079.33293702  .00000306  00000-0  37348-4 0  9992,2 53784  53.2143 106.5140 0001436  88.4244 271.6913 15.08840586 29845,6917.879,95.438,540.737,538.75,0.0
53784.0,STARLINK-4687,PAYLOAD,2023-03-20 19:07:07,15.08839645,0.0001423,53.2144,104.4311,87.2684,272.8471,7.1075e-05,8.43e-06,0.0,0 STARLINK-4687,1 53784U 22111M   23079.79661955  .00000843  00000-0  71075-4 0  9992,2 53784  53.2144 104.4311 0001423  87.2684 272.8471 15.08839645 29109,6917.881,95.438,540.731,538.762,0.0
53784.0,STARLINK-4687,PAYLOAD,2023-03-21 07:50:12,15.08843968,0.0001466,53.2142,102.0518,88.7059,271.4101,0.00020958,3.049e-05,0.0,0 STARLINK-4687,1 53784U 22111M   23080.32653869  .00003049  00000-0  20958-3 0  9992,2 53784  53.2142 102.0518 0001466  88.7059 271.4101 15.08843968 29994,6917.868,95.437,540.747,538.719,0.0
53784.0,STARLINK-4687,PAYLOAD,2023-03-21 18:57:54,15.0884386,0.0001461,53.2144,99.9702,86.563,273.5529,0.00019953,2.889e-05,0.0,0 STARLINK-4687,1 53784U 22111M   23080.79021901  .00002889  00000-0  19953-3 0  9993,2 53784  53.2144  99.9702 0001461  86.5630 273.5529 15.08843860 30069,6917.869,95.437,540.744,538.723,0.0
53784.0,STARLINK-4687,PAYLOAD,2023-03-22 06:05:37,15.0883902,0.0001486,53.2148,97.889,85.0865,275.0296,0.0001426,1.982e-05,0.0,0 STARLINK-4687,1 53784U 22111M   23081.25390202  .00001982  00000-0  14260-3 0  9997,2 53784  53.2148  97.8890 0001486  85.0865 275.0296 15.08839020 29327,6917.883,95.438,540.776,538.72,0.0
53784.0,STARLINK-4687,PAYLOAD,2023-03-22 07:41:00,15.08840335,0.0001485,53.2149,97.5921,83.4428,276.6734,0.00013697,1.893e-05,0.0,0 STARLINK-4687,1 53784U 22111M   23081.32014133  .00001893  00000-0  13697-3 0  9995,2 53784  53.2149  97.5921 0001485  83.4428 276.6734 15.08840335 30143,6917.879,95.438,540.772,538.717,0.0
53784.0,STARLINK-4687,PAYLOAD,2023-03-23 07:31:46,15.08845569,0.0001466,53.2153,93.1302,97.9296,262.1862,0.00012715,1.737e-05,0.0,0 STARLINK-4687,1 53784U 22111M   23082.31373663  .00001737  00000-0  12715-3 0  9998,2 53784  53.2153  93.1302 0001466  97.9296 262.1862 15.08845569 29486,6917.863,95.437,540.743,538.714,0.0
53784.0,STARLINK-4687,PAYLOAD,2023-03-23 17:04:06,15.08836859,0.000147,53.2153,91.3456,100.4714,259.6443,7.2951e-06,-1.72e-06,0.0,0 STARLINK-4687,1 53784U 22111M   23082.71118122 -.00000172  00000-0  72951-5 0  9992,2 53784  53.2153  91.3456 0001470 100.4714 259.6443 15.08836859 29541,6917.89,95.438,540.772,538.738,0.0
53784.0,STARLINK-4687,PAYLOAD,2023-03-24 07:22:34,15.08837567,0.0001656,53.2168,88.6733,102.66,257.4577,5.2157e-05,5.42e-06,0.0,0 STARLINK-4687,1 53784U 22111M   23083.30734645  .00000542  00000-0  52157-4 0  9997,2 53784  53.2168  88.6733 0001656 102.6600 257.4577 15.08837567 30440,6917.888,95.438,540.898,538.607,0.0
53784.0,STARLINK-4687,PAYLOAD,2023-03-24 16:54:53,15.08831975,0.000173,53.2171,86.8911,115.8643,244.2528,-2.5997e-06,-3.29e-06,0.0,0 STARLINK-4687,1 53784U 22111M   23083.70478937 -.00000329  00000-0 -25997-5 0  9998,2 53784  53.2171  86.8911 0001730 115.8643 244.2528 15.08831975 29690,6917.905,95.438,540.967,538.573,0.0
53784.0,STARLINK-4687,PAYLOAD,2023-03-25 16:45:41,15.08836818,0.0001516,53.2177,82.4309,109.0261,251.0895,9.7838e-05,1.269e-05,0.0,0 STARLINK-4687,1 53784U 22111M   23084.69839307  .00001269  00000-0  97838-4 0  9993,2 53784  53.2177  82.4309 0001516 109.0261 251.0895 15.08836818 30654,6917.89,95.438,540.804,538.706,0.0
53784.0,STARLINK-4687,PAYLOAD,2023-03-26 03:53:22,15.08848396,0.0001355,53.2179,80.348,110.6507,249.463,0.00034061,5.138e-05,0.0,0 STARLINK-4687,1 53784U 22111M   23085.16206789  .00005138  00000-0  34061-3 0  9995,2 53784  53.2179  80.3480 0001355 110.6507 249.4630 15.08848396 29914,6917.855,95.437,540.657,538.782,0.0
53784.0,STARLINK-4687,PAYLOAD,2023-03-26 16:36:27,15.08848111,0.0001313,53.2172,77.9683,99.4792,260.6349,0.00023279,3.42e-05,0.0,0 STARLINK-4687,1 53784U 22111M   23085.69198760  .00003420  00000-0  23279-3 0  9993,2 53784  53.2172  77.9683 0001313  99.4792 260.6349 15.08848111 30805,6917.856,95.437,540.629,538.812,0.0
53784.0,STARLINK-4687,PAYLOAD,2023-03-27 03:44:09,15.08842627,0.0001634,53.2185,75.8859,98.3915,261.7263,0.00016711,2.373e-05,0.0,0 STARLINK-4687,1 53784U 22111M   23086.15567051  .00002373  00000-0  16711-3 0  9997,2 53784  53.2185  75.8859 0001634  98.3915 261.7263 15.08842627 30063,6917.872,95.437,540.868,538.607,0.0
53784.0,STARLINK-4687,PAYLOAD,2023-03-27 06:54:55,15.08846762,0.0001252,53.2171,75.2895,97.3701,262.7433,0.00014643,2.044e-05,0.0,0 STARLINK-4687,1 53784U 22111M   23086.28814701  .00002044  00000-0  14643-3 0  9995,2 53784  53.2171  75.2895 0001252  97.3701 262.7433 15.08846762 30895,6917.86,95.437,540.591,538.859,0.0
53784.0,STARLINK-4687,PAYLOAD,2023-03-27 16:27:14,15.08846862,0.00013,53.218,73.506,99.039,261.0749,8.3537e-05,1.042e-05,0.0,0 STARLINK-4687,1 53784U 22111M   23086.68558581  .00001042  00000-0  83537-4 0  9996,2 53784  53.2180  73.5060 0001300  99.0390 261.0749 15.08846862 30957,6917.859,95.437,540.624,538.825,0.0
53784.0,STARLINK-4687,PAYLOAD,2023-03-28 05:10:19,15.08846669,0.0001201,53.2172,71.1269,108.3199,251.7924,9.8559e-06,-1.31e-06,0.0,0 STARLINK-4687,1 53784U 22111M   23087.21550361 -.00000131  00000-0  98559-5 0  9994,2 53784  53.2172  71.1269 0001201 108.3199 251.7924 15.08846669 30220,6917.86,95.437,540.556,538.894,0.0
53784.0,STARLINK-4687,PAYLOAD,2023-03-28 08:21:05,15.08851176,0.0001213,53.2161,70.5315,106.5957,253.5168,6.044e-05,6.74e-06,0.0,0 STARLINK-4687,1 53784U 22111M   23087.34798073  .00000674  00000-0  60440-4 0  9990,2 53784  53.2161  70.5315 0001213 106.5957 253.5168 15.08851176 31059,6917.846,95.437,540.55,538.872,0.0
53784.0,STARLINK-4687,PAYLOAD,2023-03-28 16:18:02,15.08835523,0.0001463,53.2189,69.0464,91.3587,268.7573,-6.7291e-05,-1.359e-05,0.0,0 STARLINK-4687,1 53784U 22111M   23087.67919017 -.00001359  00000-0 -67291-4 0  9993,2 53784  53.2189  69.0464 0001463  91.3587 268.7573 15.08835523 30295,6917.894,95.438,540.771,538.747,0.0
53784.0,STARLINK-4687,PAYLOAD,2023-03-29 08:11:53,15.08839066,0.0001161,53.217,66.0707,101.4401,258.6722,4.6377e-05,4.5e-06,0.0,0 STARLINK-4687,1 53784U 22111M   23088.34159068  .00000450  00000-0  46377-4 0  9991,2 53784  53.2170  66.0707 0001161 101.4401 258.6722 15.08839066 31207,6917.883,95.438,540.551,538.945,0.0
53784.0,STARLINK-4687,PAYLOAD,2023-03-30 04:51:54,15.08847278,9.84e-05,53.2167,62.2072,95.6786,264.4319,0.00030865,4.629e-05,0.0,0 STARLINK-4687,1 53784U 22111M   23089.20270864  .00004629  00000-0  30865-3 0  9991,2 53784  53.2167  62.2072 0000984  95.6786 264.4319 15.08847278 30523,6917.858,95.437,540.404,539.042,0.0
53784.0,STARLINK-4687,PAYLOAD,2023-03-30 08:02:39,15.08856441,0.0001298,53.2163,61.6108,96.9397,263.1743,0.00029261,4.374e-05,0.0,0 STARLINK-4687,1 53784U 22111M   23089.33518402  .00004374  00000-0  29261-3 0  9993,2 53784  53.2163  61.6108 0001298  96.9397 263.1743 15.08856441 30544,6917.83,95.437,540.593,538.797,0.0
53784.0,STARLINK-4687,PAYLOAD,2023-03-31 04:42:41,15.08842353,3.41e-05,53.2177,57.7484,73.4382,286.6648,0.00015857,2.237e-05,0.0,0 STARLINK-4687,1 53784U 22111M   23090.19630920  .00002237  00000-0  15857-3 0  9991,2 53784  53.2177  57.7484 0000341  73.4382 286.6648 15.08842353 30679,6917.873,95.437,539.974,539.502,0.0
53784.0,STARLINK-4687,PAYLOAD,2023-03-31 06:18:03,15.08856368,0.0001192,53.2169,57.4484,95.1343,264.9786,0.00035255,5.33e-05,0.0,0 STARLINK-4687,1 53784U 22111M   23090.26254422  .00005330  00000-0  35255-3 0  9999,2 53784  53.2169  57.4484 0001192  95.1343 264.9786 15.08856368 30684,6917.83,95.437,540.52,538.871,0.0
53784.0,STARLINK-4687,PAYLOAD,2023-04-01 04:33:28,15.08843444,0.0001274,53.2187,53.2891,99.4494,260.6643,-1.7305e-05,-5.63e-06,0.0,0 STARLINK-4687,1 53784U 22111M   23091.18990758 -.00000563  00000-0 -17305-4 0  9992,2 53784  53.2187  53.2891 0001274  99.4494 260.6643 15.08843444 30827,6917.87,95.437,540.616,538.854,0.0
53784.0,STARLINK-4687,PAYLOAD,2023-04-01 07:44:14,15.08845586,0.0001093,53.2169,52.6903,82.4007,277.7109,6.4625e-05,7.41e-06,0.0,0 STARLINK-4687,1 53784U 22111M   23091.32238517  .00000741  00000-0  64625-4 0  9999,2 53784  53.2169  52.6903 0001093  82.4007 277.7109 15.08845586 31652,6917.863,95.437,540.484,538.972,0.0
53784.0,STARLINK-4687,PAYLOAD,2023-04-02 05:59:38,15.08846153,0.0001105,53.2179,48.5288,104.3899,255.7216,6.1949e-05,6.98e-06,0.0,0 STARLINK-4687,1 53784U 22111M   23092.24974805  .00000698  00000-0  61949-4 0  9995,2 53784  53.2179  48.5288 0001105 104.3899 255.7216 15.08846153 30981,6917.862,95.437,540.491,538.962,0.0
53784.0,STARLINK-4687,PAYLOAD,2023-04-03 05:50:25,15.08845296,0.0001253,53.2178,44.0667,77.5169,282.5963,0.00019312,2.787e-05,0.0,0 STARLINK-4687,1 53784U 22111M   23093.24335173  .00002787  00000-0  19312-3 0  9992,2 53784  53.2178  44.0667 0001253  77.5169 282.5963 15.08845296 31139,6917.864,95.437,540.596,538.862,0.0
53784.0,STARLINK-4687,PAYLOAD,2023-04-04 05:41:12,15.08855211,0.0001067,53.2181,39.6075,86.1464,273.9651,0.00025027,3.699e-05,0.0,0 STARLINK-4687,1 53784U 22111M   23094.23694805  .00003699  00000-0  25027-3 0  9995,2 53784  53.2181  39.6075 0001067  86.1464 273.9651 15.08855211 32095,6917.834,95.437,540.437,538.961,0.0
53784.0,STARLINK-4687,PAYLOAD,2023-04-05 05:31:59,15.08846718,0.0001455,53.2195,35.144,87.1418,272.974,8.5911e-05,1.08e-05,0.0,0 STARLINK-4687,1 53784U 22111M   23095.23055213  .00001080  00000-0  85911-4 0  9991,2 53784  53.2195  35.1440 0001455  87.1418 272.9740 15.08846718 31435,6917.86,95.437,540.731,538.718,0.0
